{"type": "FeatureCollection", "features": [ {"type": "Feature", "properties": {"norad_id": 36366, "name": "COSMOS 2251 DEB", "group": "cosmos-2251-debris", "lat": -54.851159176782645, "lon": 102.3197644318591, "alt_km": 742.2325284709186, "timestamp": "2025-12-20T18:51:32.110352+00:00", "meta": {"OBJECT_NAME": "COSMOS 2251 DEB", "OBJECT_ID": "1993-036AYT", "EPOCH": "2025-12-18T10:28:10.933824", "MEAN_MOTION": 14.33441246, "ECCENTRICITY": 0.00903868, "INCLINATION": 74.0662, "RA_OF_ASC_NODE": 262.6684, "ARG_OF_PERICENTER": 289.8178, "MEAN_ANOMALY": 69.3247, "EPHEMERIS_TYPE": 0, "CLASSIFICATION_TYPE": "U", "NORAD_CAT_ID": 36366, "ELEMENT_SET_NO": 999, "REV_AT_EPOCH": 86370, "BSTAR": 0.0013274586, "MEAN_MOTION_DOT": 3.811e-05, "MEAN_MOTION_DDOT": 0}, "tle": {"line1": "1 36366U 93036AYT 25352.43623766  .00003811  00000+0  13275-2 0  9991", "line2": "2 36366  74.0662 262.6684 0090386 289.8178  69.3247 14.33441246863701"}}, "geometry": {"type": "Point", "coordinates": [102.3197644318591, -54.851159176782645]}}, {"type": "Feature", "properties": {"norad_id": 36367, "name": "COSMOS 2251 DEB", "group": "cosmos-2251-debris", "lat": -4.023854352683224, "lon": -143.30012467683264, "alt_km": 865.2381959182776, "timestamp": "2025-12-20T18:51:32.110362+00:00", "meta": {"OBJECT_NAME": "COSMOS 2251 DEB", "OBJECT_ID": "1993-036AYU", "EPOCH": "2025-12-20T08:29:16.285344", "MEAN_MOTION": 13.86366524, "ECCENTRICITY": 0.02619085, "INCLINATION": 74.1004, "RA_OF_ASC_NODE": 218.5774, "ARG_OF_PERICENTER": 289.7911, "MEAN_ANOMALY": 67.515, "EPHEMERIS_TYPE": 0, "CLASSIFICATION_TYPE": "U", "NORAD_CAT_ID": 36367, "ELEMENT_SET_NO": 999, "REV_AT_EPOCH": 57635, "BSTAR": 0.0011101793, "MEAN_MOTION_DOT": 1.658e-05, "MEAN_MOTION_DDOT": 0}, "tle": {"line1": "1 36367U 93036AYU 25354.35366071  .00001658  00000+0  11102-2 0  9992", "line2": "2 36367  74.1004 218.5774 0261908 289.7911  67.5150 13.86366524576354"}}, "geometry": {"type": "Point", "coordinates": [-143.30012467683264, -4.023854352683224]}}, {"type": "Feature", "properties": {"norad_id": 36369, "name": "COSMOS 2251 DEB", "group": "cosmos-2251-debris", "lat": 19.5296739712682, "lon": -130.79098714369238, "alt_km": 642.399991369779, "timestamp": "2025-12-20T18:51:32.110372+00:00", "meta": {"OBJECT_NAME": "COSMOS 2251 DEB", "OBJECT_ID": "1993-036AYW", "EPOCH": "2025-12-16T11:29:35.574144", "MEAN_MOTION": 14.73629062, "ECCENTRICITY": 0.00109821, "INCLINATION": 74.0316, "RA_OF_ASC_NODE": 63.4356, "ARG_OF_PERICENTER": 140.037, "MEAN_ANOMALY": 220.1613, "EPHEMERIS_TYPE": 0, "CLASSIFICATION_TYPE": "U", "NORAD_CAT_ID": 36369, "ELEMENT_SET_NO": 999, "REV_AT_EPOCH": 85977, "BSTAR": 0.00089048503, "MEAN_MOTION_DOT": 5.781e-05, "MEAN_MOTION_DDOT": 0}, "tle": {"line1": "1 36369U 93036AYW 25350.47888396  .00005781  00000+0  89049-3 0  9999", "line2": "2 36369  74.0316  63.4356 0010982 140.0370 220.1613 14.73629062859773"}}, "geometry": {"type": "Point", "coordinates": [-130.79098714369238, 19.5296739712682]}}, {"type": "Feature", "properties": {"norad_id": 36371, "name": "COSMOS 2251 DEB", "group": "cosmos-2251-debris", "lat": -15.10825488458469, "lon": 141.45874261551361, "alt_km": 669.2133345222383, "timestamp": "2025-12-20T18:51:32.110382+00:00", "meta": {"OBJECT_NAME": "COSMOS 2251 DEB", "OBJECT_ID": "1993-036AYY", "EPOCH": "2025-12-17T04:24:24.496704", "MEAN_MOTION": 14.70697295, "ECCENTRICITY": 0.00093434, "INCLINATION": 74.0124, "RA_OF_ASC_NODE": 152.897, "ARG_OF_PERICENTER": 191.9871, "MEAN_ANOMALY": 168.1079, "EPHEMERIS_TYPE": 0, "CLASSIFICATION_TYPE": "U", "NORAD_CAT_ID": 36371, "ELEMENT_SET_NO": 999, "REV_AT_EPOCH": 71510, "BSTAR": 0.0014821732, "MEAN_MOTION_DOT": 9.018e-05, "MEAN_MOTION_DDOT": 0}, "tle": {"line1": "1 36371U 93036AYY 25351.18361686  .00009018  00000+0  14822-2 0  9992", "line2": "2 36371  74.0124 152.8970 0009343 191.9871 168.1079 14.70697295715103"}}, "geometry": {"type": "Point", "coordinates": [141.45874261551361, -15.10825488458469]}}, {"type": "Feature", "properties": {"norad_id": 36379, "name": "COSMOS 2251 DEB", "group": "cosmos-2251-debris", "lat": -43.52267324363737, "lon": 127.83031564087582, "alt_km": 808.8863717303284, "timestamp": "2025-12-20T18:51:32.110392+00:00", "meta": {"OBJECT_NAME": "COSMOS 2251 DEB", "OBJECT_ID": "1993-036AZG", "EPOCH": "2025-12-17T15:24:04.295232", "MEAN_MOTION": 14.36087226, "ECCENTRICITY": 0.00447272, "INCLINATION": 74.0127, "RA_OF_ASC_NODE": 297.8094, "ARG_OF_PERICENTER": 65.3038, "MEAN_ANOMALY": 112.1684, "EPHEMERIS_TYPE": 0, "CLASSIFICATION_TYPE": "U", "NORAD_CAT_ID": 36379, "ELEMENT_SET_NO": 999, "REV_AT_EPOCH": 64898, "BSTAR": 0.00025368539, "MEAN_MOTION_DOT": 7.21e-06, "MEAN_MOTION_DDOT": 0}, "tle": {"line1": "1 36379U 93036AZG 25351.64171638  .00000721  00000+0  25369-3 0  9998", "line2": "2 36379  74.0127 297.8094 0044727  65.3038 112.1684 14.36087226648986"}}, "geometry": {"type": "Point", "coordinates": [127.83031564087582, -43.52267324363737]}}, {"type": "Feature", "properties": {"norad_id": 36385, "name": "COSMOS 2251 DEB", "group": "cosmos-2251-debris", "lat": 24.871353582369988, "lon": -48.854752621882604, "alt_km": 743.0648798003367, "timestamp": "2025-12-20T18:51:32.110403+00:00", "meta": {"OBJECT_NAME": "COSMOS 2251 DEB", "OBJECT_ID": "1993-036AZN", "EPOCH": "2025-12-19T09:32:49.978752", "MEAN_MOTION": 14.72677643, "ECCENTRICITY": 0.0141469, "INCLINATION": 73.9693, "RA_OF_ASC_NODE": 141.5182, "ARG_OF_PERICENTER": 314.4323, "MEAN_ANOMALY": 44.534, "EPHEMERIS_TYPE": 0, "CLASSIFICATION_TYPE": "U", "NORAD_CAT_ID": 36385, "ELEMENT_SET_NO": 999, "REV_AT_EPOCH": 85200, "BSTAR": 0.00088509, "MEAN_MOTION_DOT": 6.582e-05, "MEAN_MOTION_DDOT": 0}, "tle": {"line1": "1 36385U 93036AZN 25353.39780068  .00006582  00000+0  88509-3 0  9998", "line2": "2 36385  73.9693 141.5182 0141469 314.4323  44.5340 14.72677643852003"}}, "geometry": {"type": "Point", "coordinates": [-48.854752621882604, 24.871353582369988]}}, {"type": "Feature", "properties": {"norad_id": 36420, "name": "COSMOS 2251 DEB", "group": "cosmos-2251-debris", "lat": 48.601343495342014, "lon": 61.74680661808399, "alt_km": 774.3132510568057, "timestamp": "2025-12-20T18:51:32.110413+00:00", "meta": {"OBJECT_NAME": "COSMOS 2251 DEB", "OBJECT_ID": "1993-036AZT", "EPOCH": "2025-12-16T13:10:06.446208", "MEAN_MOTION": 14.36904576, "ECCENTRICITY": 0.00182942, "INCLINATION": 74.0376, "RA_OF_ASC_NODE": 268.4783, "ARG_OF_PERICENTER": 355.3587, "MEAN_ANOMALY": 184.0352, "EPHEMERIS_TYPE": 0, "CLASSIFICATION_TYPE": "U", "NORAD_CAT_ID": 36420, "ELEMENT_SET_NO": 999, "REV_AT_EPOCH": 85091, "BSTAR": 0.0001395606, "MEAN_MOTION_DOT": 3.87e-06, "MEAN_MOTION_DDOT": 0}, "tle": {"line1": "1 36420U 93036AZT 25350.54868572  .00000387  00000+0  13956-3 0  9990", "line2": "2 36420  74.0376 268.4783 0018294 355.3587 184.0352 14.36904576850913"}}, "geometry": {"type": "Point", "coordinates": [61.74680661808399, 48.601343495342014]}}, {"type": "Feature", "properties": {"norad_id": 36430, "name": "COSMOS 2251 DEB", "group": "cosmos-2251-debris", "lat": -61.37404073156631, "lon": -54.36969163784091, "alt_km": 736.1644268795089, "timestamp": "2025-12-20T18:51:32.110424+00:00", "meta": {"OBJECT_NAME": "COSMOS 2251 DEB", "OBJECT_ID": "1993-036BAD", "EPOCH": "2025-12-17T14:02:08.838528", "MEAN_MOTION": 14.27804633, "ECCENTRICITY": 0.00972961, "INCLINATION": 74.0048, "RA_OF_ASC_NODE": 99.7344, "ARG_OF_PERICENTER": 248.7934, "MEAN_ANOMALY": 110.2799, "EPHEMERIS_TYPE": 0, "CLASSIFICATION_TYPE": "U", "NORAD_CAT_ID": 36430, "ELEMENT_SET_NO": 999, "REV_AT_EPOCH": 64626, "BSTAR": 0.00041842357, "MEAN_MOTION_DOT": 1.061e-05, "MEAN_MOTION_DDOT": 0}, "tle": {"line1": "1 36430U 93036BAD 25351.58482452  .00001061  00000+0  41842-3 0  9990", "line2": "2 36430  74.0048  99.7344 0097296 248.7934 110.2799 14.27804633646268"}}, "geometry": {"type": "Point", "coordinates": [-54.36969163784091, -61.37404073156631]}}, {"type": "Feature", "properties": {"norad_id": 36437, "name": "COSMOS 2251 DEB", "group": "cosmos-2251-debris", "lat": 51.60351357140527, "lon": 39.60477209294819, "alt_km": 669.1679469588998, "timestamp": "2025-12-20T18:51:32.110434+00:00", "meta": {"OBJECT_NAME": "COSMOS 2251 DEB", "OBJECT_ID": "1993-036BAL", "EPOCH": "2025-12-17T10:37:14.678400", "MEAN_MOTION": 14.70771964, "ECCENTRICITY": 0.00232298, "INCLINATION": 73.9427, "RA_OF_ASC_NODE": 24.8176, "ARG_OF_PERICENTER": 256.1896, "MEAN_ANOMALY": 103.669, "EPHEMERIS_TYPE": 0, "CLASSIFICATION_TYPE": "U", "NORAD_CAT_ID": 36437, "ELEMENT_SET_NO": 999, "REV_AT_EPOCH": 66120, "BSTAR": 0.001110469, "MEAN_MOTION_DOT": 6.78e-05, "MEAN_MOTION_DDOT": 0}, "tle": {"line1": "1 36437U 93036BAL 25351.44253100  .00006780  00000+0  11105-2 0  9999", "line2": "2 36437  73.9427  24.8176 0023229 256.1896 103.6690 14.70771964661206"}}, "geometry": {"type": "Point", "coordinates": [39.60477209294819, 51.60351357140527]}}, {"type": "Feature", "properties": {"norad_id": 36439, "name": "COSMOS 2251 DEB", "group": "cosmos-2251-debris", "lat": 25.59814658318265, "lon": 31.794855617760536, "alt_km": 806.4161829645009, "timestamp": "2025-12-20T18:51:32.110444+00:00", "meta": {"OBJECT_NAME": "COSMOS 2251 DEB", "OBJECT_ID": "1993-036BAN", "EPOCH": "2025-12-16T11:25:24.463776", "MEAN_MOTION": 13.47804354, "ECCENTRICITY": 0.04280619, "INCLINATION": 73.9685, "RA_OF_ASC_NODE": 30.7531, "ARG_OF_PERICENTER": 1.8523, "MEAN_ANOMALY": 358.4044, "EPHEMERIS_TYPE": 0, "CLASSIFICATION_TYPE": "U", "NORAD_CAT_ID": 36439, "ELEMENT_SET_NO": 999, "REV_AT_EPOCH": 58663, "BSTAR": 0.0011092098, "MEAN_MOTION_DOT": 1.175e-05, "MEAN_MOTION_DDOT": 0}, "tle": {"line1": "1 36439U 93036BAN 25350.47597759  .00001175  00000+0  11092-2 0  9992", "line2": "2 36439  73.9685  30.7531 0428061   1.8523 358.4044 13.47804354586639"}}, "geometry": {"type": "Point", "coordinates": [31.794855617760536, 25.59814658318265]}}]}